[Satellite]
VERSION=1.1
NAME=JY1SAT (JO-97)
NICKNAME=JY1SAT (JO-97)
TLE1=1 43803U 18099AX  19317.72562708  .00000173  00000-0  20893-4 0  9990
TLE2=2 43803  97.7290  27.7374 0015058 189.9026 170.1900 14.95354920 51543
STATUS=0
